[
    {
        "Altitude(m)": 622205.8300287161,
        "Argument of Periapsis(deg)": 0.0,
        "Eccentricity": 0.0,
        "Inclination(deg)": 60.0,
        "Latitude(deg)": -52.16233202026159,
        "Longitude(deg)": 112.70037306636497,
        "Mean Anomaly(deg)": -114.54550000000008,
        "RAAN(deg)": 345.0,
        "Satellite Name": "Test1 1533",
        "Satellite Number": 1533,
        "Semi-Major Axis(m)": 6980739.136638005,
        "Time(s)": 0
    },
    {
        "Altitude(m)": 622344.7367772575,
        "Argument of Periapsis(deg)": 0.00010418945913296404,
        "Eccentricity": 0.0,
        "Inclination(deg)": 60.0,
        "Latitude(deg)": -52.519911859452186,
        "Longitude(deg)": 113.48158332613927,
        "Mean Anomaly(deg)": -113.9253938545382,
        "RAAN(deg)": 344.99957995086027,
        "Satellite Name": "Test1 1533",
        "Satellite Number": 1533,
        "Semi-Major Axis(m)": 6980739.136638005,
        "Time(s)": 10
    },
    {
        "Altitude(m)": 622480.7998853698,
        "Argument of Periapsis(deg)": 0.0002083789182659281,
        "Eccentricity": 0.0,
        "Inclination(deg)": 60.0,
        "Latitude(deg)": -52.87165511178814,
        "Longitude(deg)": 114.27612566105122,
        "Mean Anomaly(deg)": -113.30528770907637,
        "RAAN(deg)": 344.99915990172053,
        "Satellite Name": "Test1 1533",
        "Satellite Number": 1533,
        "Semi-Major Axis(m)": 6980739.136638005,
        "Time(s)": 20
    },
    {
        "Altitude(m)": 622613.9661215933,
        "Argument of Periapsis(deg)": 0.00031256837739889213,
        "Eccentricity": 0.0,
        "Inclination(deg)": 60.0,
        "Latitude(deg)": -53.21739391708004,
        "Longitude(deg)": 115.08416103889125,
        "Mean Anomaly(deg)": -112.68518156361455,
        "RAAN(deg)": 344.9987398525808,
        "Satellite Name": "Test1 1533",
        "Satellite Number": 1533,
        "Semi-Major Axis(m)": 6980739.136638005,
        "Time(s)": 30
    },
    {
        "Altitude(m)": 622744.1833647008,
        "Argument of Periapsis(deg)": 0.0004167578365318562,
        "Eccentricity": 0.0,
        "Inclination(deg)": 60.0,
        "Latitude(deg)": -53.556957008259545,
        "Longitude(deg)": 115.90583880438487,
        "Mean Anomaly(deg)": -112.06507541815272,
        "RAAN(deg)": 344.99831980344106,
        "Satellite Name": "Test1 1533",
        "Satellite Number": 1533,
        "Semi-Major Axis(m)": 6980739.136638005,
        "Time(s)": 40
    },
    {
        "Altitude(m)": 622871.4006259252,
        "Argument of Periapsis(deg)": 0.0005209472956648203,
        "Eccentricity": 0.0,
        "Inclination(deg)": 60.0,
        "Latitude(deg)": -53.89016983413605,
        "Longitude(deg)": 116.741294282709,
        "Mean Anomaly(deg)": -111.44496927269084,
        "RAAN(deg)": 344.9978997543013,
        "Satellite Name": "Test1 1533",
        "Satellite Number": 1533,
        "Semi-Major Axis(m)": 6980739.136638005,
        "Time(s)": 50
    },
    {
        "Altitude(m)": 622995.5680707224,
        "Argument of Periapsis(deg)": 0.0006251367547977843,
        "Eccentricity": 0.0,
        "Inclination(deg)": 60.0,
        "Latitude(deg)": -54.21685470614056,
        "Longitude(deg)": 117.59064783227495,
        "Mean Anomaly(deg)": -110.824863127229,
        "RAAN(deg)": 344.99747970516154,
        "Satellite Name": "Test1 1533",
        "Satellite Number": 1533,
        "Semi-Major Axis(m)": 6980739.136638005,
        "Time(s)": 60
    },
    {
        "Altitude(m)": 623116.6370399945,
        "Argument of Periapsis(deg)": 0.0007293262139307483,
        "Eccentricity": 0.0,
        "Inclination(deg)": 60.0,
        "Latitude(deg)": -54.53683097066976,
        "Longitude(deg)": 118.45400383826542,
        "Mean Anomaly(deg)": -110.20475698176719,
        "RAAN(deg)": 344.99705965602186,
        "Satellite Name": "Test1 1533",
        "Satellite Number": 1533,
        "Semi-Major Axis(m)": 6980739.136638005,
        "Time(s)": 70
    },
    {
        "Altitude(m)": 623234.5600708132,
        "Argument of Periapsis(deg)": 0.0008335156730637124,
        "Eccentricity": 0.0,
        "Inclination(deg)": 60.0,
        "Latitude(deg)": -54.84991520860387,
        "Longitude(deg)": 119.33144813970556,
        "Mean Anomaly(deg)": -109.58465083630536,
        "RAAN(deg)": 344.99663960688207,
        "Satellite Name": "Test1 1533",
        "Satellite Number": 1533,
        "Semi-Major Axis(m)": 6980739.136638005,
        "Time(s)": 80
    },
    {
        "Altitude(m)": 623349.2909166274,
        "Argument of Periapsis(deg)": 0.0009377051321966765,
        "Eccentricity": 0.0,
        "Inclination(deg)": 60.0,
        "Latitude(deg)": -55.155921463505464,
        "Longitude(deg)": 120.22304692285343,
        "Mean Anomaly(deg)": -108.96454469084348,
        "RAAN(deg)": 344.99621955774234,
        "Satellite Name": "Test1 1533",
        "Satellite Number": 1533,
        "Semi-Major Axis(m)": 6980739.136638005,
        "Time(s)": 90
    },
    {
        "Altitude(m)": 623460.7845669221,
        "Argument of Periapsis(deg)": 0.0010418945913296407,
        "Eccentricity": 0.0,
        "Inclination(deg)": 60.0,
        "Latitude(deg)": -55.4546614999048,
        "Longitude(deg)": 121.12884557659828,
        "Mean Anomaly(deg)": -108.34443854538164,
        "RAAN(deg)": 344.9957995086026,
        "Satellite Name": "Test1 1533",
        "Satellite Number": 1533,
        "Semi-Major Axis(m)": 6980739.136638005,
        "Time(s)": 100
    },
    {
        "Altitude(m)": 623568.9972663566,
        "Argument of Periapsis(deg)": 0.0011460840504626045,
        "Eccentricity": 0.0,
        "Inclination(deg)": 60.0,
        "Latitude(deg)": -55.74594509294534,
        "Longitude(deg)": 122.0488660071513,
        "Mean Anomaly(deg)": -107.72433239991983,
        "RAAN(deg)": 344.99537945946287,
        "Satellite Name": "Test1 1533",
        "Satellite Number": 1533,
        "Semi-Major Axis(m)": 6980739.136638005,
        "Time(s)": 110
    },
    {
        "Altitude(m)": 623673.8865333403,
        "Argument of Periapsis(deg)": 0.0012502735095955685,
        "Eccentricity": 0.0,
        "Inclination(deg)": 60.0,
        "Latitude(deg)": -56.02958035049523,
        "Longitude(deg)": 122.9831054495984,
        "Mean Anomaly(deg)": -107.10422625445798,
        "RAAN(deg)": 344.99495941032313,
        "Satellite Name": "Test1 1533",
        "Satellite Number": 1533,
        "Semi-Major Axis(m)": 6980739.136638005,
        "Time(s)": 120
    },
    {
        "Altitude(m)": 623775.411178084,
        "Argument of Periapsis(deg)": 0.0013544629687285324,
        "Eccentricity": 0.0,
        "Inclination(deg)": 60.0,
        "Latitude(deg)": -56.305374068620424,
        "Longitude(deg)": 123.9315352770012,
        "Mean Anomaly(deg)": -106.48412010899622,
        "RAAN(deg)": 344.99453936118334,
        "Satellite Name": "Test1 1533",
        "Satellite Number": 1533,
        "Semi-Major Axis(m)": 6980739.136638005,
        "Time(s)": 130
    },
    {
        "Altitude(m)": 623873.5313200569,
        "Argument of Periapsis(deg)": 0.0014586524278614966,
        "Eccentricity": 0.0,
        "Inclination(deg)": 60.0,
        "Latitude(deg)": -56.57313212106274,
        "Longitude(deg)": 124.89409830948087,
        "Mean Anomaly(deg)": -105.86401396353438,
        "RAAN(deg)": 344.9941193120436,
        "Satellite Name": "Test1 1533",
        "Satellite Number": 1533,
        "Semi-Major Axis(m)": 6980739.136638005,
        "Time(s)": 140
    },
    {
        "Altitude(m)": 623968.2084049096,
        "Argument of Periapsis(deg)": 0.0015628418869944607,
        "Eccentricity": 0.0,
        "Inclination(deg)": 60.0,
        "Latitude(deg)": -56.83265988307536,
        "Longitude(deg)": 125.870707666058,
        "Mean Anomaly(deg)": -105.24390781807257,
        "RAAN(deg)": 344.99369926290393,
        "Satellite Name": "Test1 1533",
        "Satellite Number": 1533,
        "Semi-Major Axis(m)": 6980739.136638005,
        "Time(s)": 150
    },
    {
        "Altitude(m)": 624059.4052208178,
        "Argument of Periapsis(deg)": 0.0016670313461274247,
        "Eccentricity": 0.0,
        "Inclination(deg)": 60.0,
        "Latitude(deg)": -57.08376268962844,
        "Longitude(deg)": 126.86124566509831,
        "Mean Anomaly(deg)": -104.62380167261072,
        "RAAN(deg)": 344.99327921376414,
        "Satellite Name": "Test1 1533",
        "Satellite Number": 1533,
        "Semi-Major Axis(m)": 6980739.136638005,
        "Time(s)": 160
    },
    {
        "Altitude(m)": 624147.0859142267,
        "Argument of Periapsis(deg)": 0.0017712208052603888,
        "Eccentricity": 0.0,
        "Inclination(deg)": 60.0,
        "Latitude(deg)": -57.326246327611976,
        "Longitude(deg)": 127.86556128078158,
        "Mean Anomaly(deg)": -104.00369552714896,
        "RAAN(deg)": 344.9928591646244,
        "Satellite Name": "Test1 1533",
        "Satellite Number": 1533,
        "Semi-Major Axis(m)": 6980739.136638005,
        "Time(s)": 170
    },
    {
        "Altitude(m)": 624231.2160050443,
        "Argument of Periapsis(deg)": 0.001875410264393353,
        "Eccentricity": 0.0,
        "Inclination(deg)": 60.0,
        "Latitude(deg)": -57.55991756124463,
        "Longitude(deg)": 128.88346920304642,
        "Mean Anomaly(deg)": -103.38358938168712,
        "RAAN(deg)": 344.9924391154847,
        "Satellite Name": "Test1 1533",
        "Satellite Number": 1533,
        "Semi-Major Axis(m)": 6980739.136638005,
        "Time(s)": 180
    },
    {
        "Altitude(m)": 624311.7624012287,
        "Argument of Periapsis(deg)": 0.0019795997235263173,
        "Eccentricity": 0.0,
        "Inclination(deg)": 60.0,
        "Latitude(deg)": -57.784584689426445,
        "Longitude(deg)": 129.91474901105667,
        "Mean Anomaly(deg)": -102.76348323622531,
        "RAAN(deg)": 344.99201906634494,
        "Satellite Name": "Test1 1533",
        "Satellite Number": 1533,
        "Semi-Major Axis(m)": 6980739.136638005,
        "Time(s)": 190
    }
]